{
    "links": {
        "self": "http://www.neowsapp.com/rest/v1/neo/3869354?api_key=iIulBulltgU6a56xZRHN4H3l9WmuAYTsLGpBGhQ2"
    },
    "id": "3869354",
    "neo_reference_id": "3869354",
    "name": "(2019 SF7)",
    "designation": "2019 SF7",
    "nasa_jpl_url": "http://ssd.jpl.nasa.gov/sbdb.cgi?sstr=3869354",
    "absolute_magnitude_h": 24.9,
    "estimated_diameter": {
        "kilometers": {
            "estimated_diameter_min": 0.0278326768,
            "estimated_diameter_max": 0.0622357573
        },
        "meters": {
            "estimated_diameter_min": 27.8326768072,
            "estimated_diameter_max": 62.2357573367
        },
        "miles": {
            "estimated_diameter_min": 0.0172944182,
            "estimated_diameter_max": 0.0386714948
        },
        "feet": {
            "estimated_diameter_min": 91.3145593761,
            "estimated_diameter_max": 204.1855621004
        }
    },
    "is_potentially_hazardous_asteroid": false,
    "close_approach_data": [
        {
            "close_approach_date": "2019-09-03",
            "close_approach_date_full": "2019-Sep-03 04:08",
            "epoch_date_close_approach": 1567483680000,
            "relative_velocity": {
                "kilometers_per_second": "6.4335933242",
                "kilometers_per_hour": "23160.935967087",
                "miles_per_hour": "14391.3049068824"
            },
            "miss_distance": {
                "astronomical": "0.09261351",
                "lunar": "36.02665539",
                "kilometers": "13854783.8292237",
                "miles": "8608963.46853906"
            },
            "orbiting_body": "Earth"
        }
    ],
    "orbital_data": {
        "orbit_id": "3",
        "orbit_determination_date": "2020-01-19 05:16:41",
        "first_observation_date": "2019-09-28",
        "last_observation_date": "2019-10-08",
        "data_arc_in_days": 10,
        "observations_used": 24,
        "orbit_uncertainty": "8",
        "minimum_orbit_intersection": ".0879282",
        "jupiter_tisserand_invariant": "3.573",
        "epoch_osculation": "2458759.5",
        "eccentricity": ".4966800913353993",
        "semi_major_axis": "2.105195582697602",
        "inclination": "4.096027459761943",
        "ascending_node_longitude": "234.8054499216128",
        "orbital_period": "1115.673459778581",
        "perihelion_distance": "1.059586848404478",
        "perihelion_argument": "95.29274047466741",
        "aphelion_distance": "3.150804316990726",
        "perihelion_time": "2458721.635793687695",
        "mean_anomaly": "12.21783502417908",
        "mean_motion": ".3226750594850991",
        "equinox": "J2000",
        "orbit_class": {
            "orbit_class_type": "AMO",
            "orbit_class_description": "Near-Earth asteroid orbits similar to that of 1221 Amor",
            "orbit_class_range": "1.017 AU < q (perihelion) < 1.3 AU"
        }
    },
    "is_sentry_object": false
}